0 NIMBUS 2 DEB
1 25526U 66040D   13281.90310514  .00002174  00000-0  30400-2 0  8042
2 25526 100.5704 261.9953 0045844 079.5961 348.2657 13.58349152 33457
0 NIMBUS 2 DEB
1 25526U 66040D   13282.93208483  .00002341  00000-0  32683-2 0  8059
2 25526 100.5703 263.1008 0045738 076.9663 340.1577 13.58351647 33592
0 NIMBUS 2 DEB
1 25526U 66040D   13284.19988455  .00002437  00000-0  33996-2 0  8068
2 25526 100.5702 264.4643 0045904 074.0214 059.6463 13.58357050 33765
0 NIMBUS 2 DEB
1 25526U 66040D   13285.22800505  .00002247  00000-0  31394-2 0  8072
2 25526 100.5700 265.5700 0046036 071.6218 047.1432 13.58361690 33902
0 NIMBUS 2 DEB
1 25526U 66040D   13286.61465134  .00002323  00000-0  32427-2 0  8085
2 25526 100.5698 267.0614 0046201 068.3919 347.8474 13.58367845 34099
0 NIMBUS 2 DEB
1 25526U 66040D   13287.64743579  .00002730  00000-0  37973-2 0  8095
2 25526 100.5698 268.1720 0046312 066.0005 358.1724 13.58373203 34237
0 NIMBUS 2 DEB
1 25526U 66040D   13289.19412277  .00002834  00000-0  39393-2 0  8100
2 25526 100.5702 269.8353 0046446 062.4021 001.5414 13.58381762 34446
0 NIMBUS 2 DEB
1 25526U 66040D   13290.23617419  .00002724  00000-0  37892-2 0  8113
2 25526 100.5705 270.9558 0046568 060.0134 057.2090 13.58386728 34583
0 NIMBUS 2 DEB
1 25526U 66040D   13291.62252071  .00002649  00000-0  36851-2 0  8127
2 25526 100.5711 272.4467 0046667 056.8072 356.5524 13.58393841 34772
0 NIMBUS 2 DEB
1 25526U 66040D   13292.65566617  .00002720  00000-0  37822-2 0  8135
2 25526 100.5714 273.5577 0046785 054.4348 008.7201 13.58398809 34913
0 NIMBUS 2 DEB
1 25526U 66040D   13294.20333458  .00002945  00000-0  40889-2 0  8140
2 25526 100.5720 275.2222 0046903 050.8490 017.0170 13.58406538 35127
0 NIMBUS 2 DEB
1 25526U 66040D   13295.88957707  .00003035  00000-0  42105-2 0  8159
2 25526 100.5723 277.0358 0047060 046.9662 342.9846 13.58416084 35354
